[
    {
        "Altitude(m)": 553763.0300551434,
        "Argument of Periapsis(deg)": 0.033114955553567506,
        "Eccentricity": 0.0,
        "Inclination(deg)": 53.0,
        "Latitude(deg)": 4.6364937615009145,
        "Longitude(deg)": -52.47227349253896,
        "Mean Anomaly(deg)": -185.90553566211207,
        "RAAN(deg)": 234.95071684264005,
        "Satellite Name": "Starlink Shell 1 1041",
        "Satellite Number": 1041,
        "Semi-Major Axis(m)": 6931778.249405717,
        "Time(s)": 950
    },
    {
        "Altitude(m)": 553803.9081943427,
        "Argument of Periapsis(deg)": 0.03346353403307874,
        "Eccentricity": 0.0,
        "Inclination(deg)": 53.0,
        "Latitude(deg)": 4.133342619178413,
        "Longitude(deg)": -52.1346486794851,
        "Mean Anomaly(deg)": -185.27870445855538,
        "RAAN(deg)": 234.9501980725626,
        "Satellite Name": "Starlink Shell 1 1041",
        "Satellite Number": 1041,
        "Semi-Major Axis(m)": 6931778.249405717,
        "Time(s)": 960
    },
    {
        "Altitude(m)": 553847.6024780247,
        "Argument of Periapsis(deg)": 0.03381211251258998,
        "Eccentricity": 0.0,
        "Inclination(deg)": 53.0,
        "Latitude(deg)": 3.630011991857833,
        "Longitude(deg)": -51.79750689393138,
        "Mean Anomaly(deg)": -184.6518732549986,
        "RAAN(deg)": 234.94967930248512,
        "Satellite Name": "Starlink Shell 1 1041",
        "Satellite Number": 1041,
        "Semi-Major Axis(m)": 6931778.249405717,
        "Time(s)": 970
    },
    {
        "Altitude(m)": 553894.1153398262,
        "Argument of Periapsis(deg)": 0.034160690992101214,
        "Eccentricity": 0.0,
        "Inclination(deg)": 53.0,
        "Latitude(deg)": 3.12652514959888,
        "Longitude(deg)": -51.46078981849322,
        "Mean Anomaly(deg)": -184.02504205144191,
        "RAAN(deg)": 234.94916053240763,
        "Satellite Name": "Starlink Shell 1 1041",
        "Satellite Number": 1041,
        "Semi-Major Axis(m)": 6931778.249405717,
        "Time(s)": 980
    },
    {
        "Altitude(m)": 553943.4478671823,
        "Argument of Periapsis(deg)": 0.034509269471612446,
        "Eccentricity": 0.0,
        "Inclination(deg)": 53.0,
        "Latitude(deg)": 2.622905273777781,
        "Longitude(deg)": -51.12443881952816,
        "Mean Anomaly(deg)": -183.3982108478852,
        "RAAN(deg)": 234.94864176233017,
        "Satellite Name": "Starlink Shell 1 1041",
        "Satellite Number": 1041,
        "Semi-Major Axis(m)": 6931778.249405717,
        "Time(s)": 990
    }
]